ONEWEB-0136             
1 47282U 20100AA  25324.45419590 -.00000368  00000+0 -10578-2 0  9990
2 47282  87.8969  32.1125 0002133  92.6155 267.5217 13.12442245237283
ONEWEB-0137             
1 47283U 20100AB  25324.64073969  .00000459  00000+0  12408-2 0  9991
2 47283  87.8968  32.0809 0001603  98.2409 261.8901 13.12443107237214
ONEWEB-0138             
1 47284U 20100AC  25324.61964999 -.00000101  00000+0 -31698-3 0  9990
2 47284  87.8968  32.0943 0001928  96.6798 263.4550 13.12442694237293
ONEWEB-0139             
1 47285U 20100AD  25324.65872711  .00000157  00000+0  40234-3 0  9990
2 47285  87.8964  32.0762 0001786 100.3245 259.8085 13.12442026237371
ONEWEB-0140             
1 47286U 20100AE  25324.46068513 -.00000277  00000+0 -80630-3 0  9996
2 47286  87.8969  32.1020 0001897  97.7532 262.3812 13.12442670237312
ONEWEB-0141             
1 47287U 20100AF  25324.42973575  .00000196  00000+0  50916-3 0  9998
2 47287  87.8962  32.1186 0001466  98.3725 261.7570 13.12441668237299
ONEWEB-0142             
1 47288U 20100AG  25324.49489804  .00000759  00000+0  20754-2 0  9994
2 47288  87.8973  32.1276 0001440  88.8322 271.2971 13.12439487237298
ONEWEB-0143             
1 47289U 20100AH  25324.65695645  .00000211  00000+0  55077-3 0  9995
2 47289  87.8963  32.0912 0001753 101.8144 258.3181 13.12442373237296
